NORAD_CAT_ID,OBJECT_NAME,OBJECT_TYPE,EPOCH,MEAN_MOTION,ECCENTRICITY,INCLINATION,RA_OF_ASC_NODE,ARG_OF_PERICENTER,MEAN_ANOMALY,BSTAR,MEAN_MOTION_DOT,MEAN_MOTION_DDOT,TLE_LINE0,TLE_LINE1,TLE_LINE2,SEMIMAJOR_AXIS,PERIOD,APOGEE,PERIGEE,DECAYED
50165.0,STARLINK-3298,PAYLOAD,2022-02-22 04:00:00,15.21009319,0.0001932,53.2175,47.8409,32.0753,318.5432,-0.031605,-0.00658376,0.0,0 STARLINK-3298,1 50165U 21125K   22053.16667824 -.00658376  00000-0 -31605-1 0  9993,2 50165  53.2175  47.8409 0001932  32.0753 318.5432 15.21009319 10456,6880.932,94.674,504.126,501.467,0.0
50165.0,STARLINK-3298,PAYLOAD,2022-02-22 14:00:01,15.20425645,0.0001638,53.2172,45.9365,44.613,68.3344,-0.032115,-0.00657636,0.0,0 STARLINK-3298,1 50165U 21125K   22053.58334491 -.00657636  00000-0 -32115-1 0  9995,2 50165  53.2172  45.9365 0001638  44.6130  68.3344 15.20425645  3631,6882.693,94.71,505.685,503.43,0.0
50165.0,STARLINK-3298,PAYLOAD,2022-02-22 22:00:00,15.19959634,0.0001894,53.2174,44.4128,38.0261,100.1541,-0.032621,-0.00658869,0.0,0 STARLINK-3298,1 50165U 21125K   22053.91667824 -.00658869  00000-0 -32621-1 0  9992,2 50165  53.2174  44.4128 0001894  38.0261 100.1541 15.19959634  3643,6884.099,94.739,507.268,504.661,0.0
50165.0,STARLINK-3298,PAYLOAD,2022-02-23 06:00:00,15.19492397,0.0002242,53.2173,42.8934,31.849,131.002,-0.033019,-0.00665119,0.0,0 STARLINK-3298,1 50165U 21125K   22054.25001157 -.00665119  00000-0 -33019-1 0  9999,2 50165  53.2173  42.8934 0002242  31.8490 131.0020 15.19492397 10621,6885.511,94.768,508.919,505.832,0.0
50165.0,STARLINK-3298,PAYLOAD,2022-02-23 14:00:01,15.19026102,0.0001776999999999,53.2173,41.3726,45.0219,141.9403,-0.033476,-0.00665169,0.0,0 STARLINK-3298,1 50165U 21125K   22054.58334491 -.00665169  00000-0 -33476-1 0  9997,2 50165  53.2173  41.3726 0001777  45.0219 141.9403 15.19026102  3660,6886.92,94.798,510.008,507.561,0.0
50165.0,STARLINK-3298,PAYLOAD,2022-02-23 22:00:00,15.18559942,0.0001833,53.2173,39.8523,43.4332,167.0798,-0.033963,-0.00665734,0.0,0 STARLINK-3298,1 50165U 21125K   22054.91667824 -.00665734  00000-0 -33963-1 0  9992,2 50165  53.2173  39.8523 0001833  43.4332 167.0798 15.18559942  3666,6888.329000000002,94.827,511.457,508.931,0.0
50165.0,STARLINK-3298,PAYLOAD,2022-02-24 14:00:01,15.17627221,0.0001663,53.2173,36.8185,49.0783,206.853,-0.034958,-0.0066688999999999,0.0,0 STARLINK-3298,1 50165U 21125K   22055.58334491 -.00666890  00000-0 -34958-1 0  9996,2 50165  53.2173  36.8185 0001663  49.0783 206.8530 15.17627221  3638,6891.151,94.885,514.1619999999998,511.87,0.0
50165.0,STARLINK-3298,PAYLOAD,2022-02-24 22:00:00,15.17058526,0.0001681,53.2174,35.3001,39.3199,238.5357,-0.027685,-0.00522282,0.0,0 STARLINK-3298,1 50165U 21125K   22055.91667824 -.00522282  00000-0 -27685-1 0  9997,2 50165  53.2174  35.3001 0001681  39.3199 238.5357 15.17058526  3616,6892.873000000001,94.921,515.8969999999998,513.5790000000002,0.0
50165.0,STARLINK-3298,PAYLOAD,2022-02-25 06:00:00,15.166928899999998,0.0001939,53.2174,33.7888,37.6957,261.4116,-0.035782,-0.00664666,0.0,0 STARLINK-3298,1 50165U 21125K   22056.25001157 -.00664666  00000-0 -35782-1 0  9996,2 50165  53.2174  33.7888 0001939  37.6957 261.4116 15.16692890 10927,6893.981,94.943,517.183,514.509,0.0
50165.0,STARLINK-3298,PAYLOAD,2022-02-25 14:00:01,15.16227944,0.0001626999999999,53.2173,32.2743,45.4128,274.4418,-0.036446,-0.00667791,0.0,0 STARLINK-3298,1 50165U 21125K   22056.58334491 -.00667791  00000-0 -36446-1 0  9992,2 50165  53.2173  32.2743 0001627  45.4128 274.4418 15.16227944  3634,6895.39,94.973,518.377,516.133,0.0
50165.0,STARLINK-3298,PAYLOAD,2022-02-25 22:00:00,15.15758358,0.0001754,53.2175,30.7608,39.9331,300.1093,-0.036572,-0.00661582,0.0,0 STARLINK-3298,1 50165U 21125K   22056.91667824 -.00661582  00000-0 -36572-1 0  9990,2 50165  53.2175  30.7608 0001754  39.9331 300.1093 15.15758358  3637,6896.814,95.002,519.889,517.47,0.0
50165.0,STARLINK-3298,PAYLOAD,2022-02-26 14:00:01,15.14827729,0.0001654,53.2174,27.7398,41.1746,337.5579,-0.037877,-0.00666893,0.0,0 STARLINK-3298,1 50165U 21125K   22057.58334491 -.00666893  00000-0 -37877-1 0  9994,2 50165  53.2174  27.7398 0001654  41.1746 337.5579 15.14827729 11137,6899.639,95.06,522.645,520.362,0.0
50165.0,STARLINK-3298,PAYLOAD,2022-02-26 22:00:00,15.14358692,0.0001948,53.2174,26.2298,32.8297,4.4085,-0.038064,-0.00661697,0.0,0 STARLINK-3298,1 50165U 21125K   22057.91667824 -.00661697  00000-0 -38064-1 0  9996,2 50165  53.2174  26.2298 0001948  32.8297   4.4085 15.14358692  3641,6901.063,95.09,524.273,521.5840000000002,0.0
50165.0,STARLINK-3298,PAYLOAD,2022-02-27 14:00:01,15.1342741,0.0001702,53.2174,23.2152,41.3748,31.1899,-0.039333,-0.00665695,0.0,0 STARLINK-3298,1 50165U 21125K   22058.58334491 -.00665695  00000-0 -39333-1 0  9993,2 50165  53.2174  23.2152 0001702  41.3748  31.1899 15.13427410  3634,6903.894,95.148,526.934,524.5840000000002,0.0
50165.0,STARLINK-3298,PAYLOAD,2022-02-27 22:00:00,15.1295938,0.0001952,53.2174,21.7084,35.4071,53.9811,-0.039648,-0.00662478,0.0,0 STARLINK-3298,1 50165U 21125K   22058.91667824 -.00662478  00000-0 -39648-1 0  9994,2 50165  53.2174  21.7084 0001952  35.4071  53.9811 15.12959380 11338,6905.318,95.178,528.531,525.835,0.0
50165.0,STARLINK-3298,PAYLOAD,2022-02-28 14:00:01,15.12027353,0.0001813,53.2174,18.7002,40.5274,80.8236,-0.040858,-0.00664897,0.0,0 STARLINK-3298,1 50165U 21125K   22059.58334491 -.00664897  00000-0 -40858-1 0  9991,2 50165  53.2174  18.7002 0001813  40.5274  80.8236 15.12027353  3632,6908.155,95.236,531.2719999999998,528.768,0.0
50165.0,STARLINK-3298,PAYLOAD,2022-02-28 22:00:00,15.11559879,0.0002051,53.2176,17.1969,35.9027,100.5897,-0.041266,-0.00662972,0.0,0 STARLINK-3298,1 50165U 21125K   22059.91667824 -.00662972  00000-0 -41266-1 0  9993,2 50165  53.2176  17.1969 0002051  35.9027 100.5897 15.11559879 11485,6909.579000000002,95.266,532.861,530.0269999999998,0.0
50165.0,STARLINK-3298,PAYLOAD,2022-03-01 14:00:01,15.10627679,0.0001869,53.2174,14.1949,41.5691,123.5225,-0.042474,-0.00664755,0.0,0 STARLINK-3298,1 50165U 21125K   22060.58334491 -.00664755  00000-0 -42474-1 0  9992,2 50165  53.2174  14.1949 0001869  41.5691 123.5225 15.10627679  3624,6912.422,95.325,535.578,532.995,0.0
50165.0,STARLINK-3298,PAYLOAD,2022-03-01 22:00:01,15.10160252,0.0002008,53.2177,12.6951,38.393,140.2208,-0.042918,-0.0066316999999999,0.0,0 STARLINK-3298,1 50165U 21125K   22060.91668981 -.00663170  00000-0 -42918-1 0  9996,2 50165  53.2177  12.6951 0002008  38.3930 140.2208 15.10160252 11635,6913.848000000001,95.354,537.101,534.325,0.0
50165.0,STARLINK-3298,PAYLOAD,2022-03-02 14:00:01,15.091355599999998,0.0001827,53.2174,9.6991,41.9742,161.8295,-0.026468,-0.00401887,0.0,0 STARLINK-3298,1 50165U 21125K   22061.58334491 -.00401887  00000-0 -26468-1 0  9993,2 50165  53.2174   9.6991 0001827  41.9742 161.8295 15.09135560  3617,6916.977,95.419,540.106,537.578,0.0
50165.0,STARLINK-3298,PAYLOAD,2022-03-02 22:00:00,15.0883717,0.0001993,53.2177,8.2025,38.861,176.7127,-5.0541000000000005e-06,-3.69e-06,0.0,0 STARLINK-3298,1 50165U 21125K   22061.91667824 -.00000369  00000-0 -50541-5 0  9992,2 50165  53.2177   8.2025 0001993  38.8610 176.7127 15.08837170 11787,6917.889,95.438,541.133,538.375,0.0
50165.0,STARLINK-3298,PAYLOAD,2022-03-03 06:00:00,15.08833923,0.0002143,53.2213,6.7003,43.7395,183.5465,0.0021669,0.00034361,0.0,0 STARLINK-3298,1 50165U 21125K   22062.25001157  .00034361  00000-0  21669-2 0  9994,2 50165  53.2213   6.7003 0002143  43.7395 183.5465 15.08833923 11839,6917.899,95.438,541.246,538.281,0.0
50165.0,STARLINK-3298,PAYLOAD,2022-03-03 14:00:01,15.08862906,0.0001955,53.2211,5.2025,47.3626,191.5385,-0.00041227,-6.848e-05,0.0,0 STARLINK-3298,1 50165U 21125K   22062.58334491 -.00006848  00000-0 -41227-3 0  9994,2 50165  53.2211   5.2025 0001955  47.3626 191.5385 15.08862906  3634,6917.81,95.436,541.028,538.323,0.0
50165.0,STARLINK-3298,PAYLOAD,2022-03-03 22:00:00,15.0888921,0.000191,53.2211,3.7065,50.12,200.4032,-0.0036581,-0.00058116,0.0,0 STARLINK-3298,1 50165U 21125K   22062.91667824 -.00058116  00000-0 -36581-2 0  9991,2 50165  53.2211   3.7065 0001910  50.1200 200.4032 15.08889210  3627,6917.73,95.434,540.9159999999998,538.274,0.0
50165.0,STARLINK-3298,PAYLOAD,2022-03-04 06:00:02,15.08831415,0.000206,53.2209,2.2117,43.7995,218.4228,0.0023675,0.00037584,0.0,0 STARLINK-3298,1 50165U 21125K   22063.25002315  .00037584  00000-0  23675-2 0  9991,2 50165  53.2209   2.2117 0002060  43.7995 218.4228 15.08831415 11980,6917.906999999997,95.438,541.197,538.347,0.0
50165.0,STARLINK-3298,PAYLOAD,2022-03-04 14:00:01,15.08845974,0.0001854,53.2206,0.7139,46.4657,227.3662,-0.0013639,-0.00021933,0.0,0 STARLINK-3298,1 50165U 21125K   22063.58335648 -.00021933  00000-0 -13639-2 0  9997,2 50165  53.2206   0.7139 0001854  46.4657 227.3662 15.08845974  3638,6917.861999999999,95.437,541.01,538.445,0.0
50165.0,STARLINK-3298,PAYLOAD,2022-03-04 22:00:00,15.08844957,0.0001844,53.2206,359.2181,48.0748,237.2238,-0.0010002,-0.00016173,0.0,0 STARLINK-3298,1 50165U 21125K   22063.91667824 -.00016173  00000-0 -10002-2 0  9999,2 50165  53.2206 359.2181 0001844  48.0748 237.2238 15.08844957 12083,6917.865,95.437,541.006,538.455,0.0
50165.0,STARLINK-3298,PAYLOAD,2022-03-05 06:00:00,15.08813593,0.0002028,53.2204,357.7234,43.1104,253.7866,0.0030014,0.00047769,0.0,0 STARLINK-3298,1 50165U 21125K   22064.25001157  .00047769  00000-0  30014-2 0  9996,2 50165  53.2204 357.7234 0002028  43.1104 253.7866 15.08813593  3677,6917.9609999999975,95.439,541.229,538.423,0.0
50165.0,STARLINK-3298,PAYLOAD,2022-03-05 14:00:01,15.088447199999996,0.0001869,53.2203,356.2255,46.9375,261.5718,0.0011619999999999,0.00018256,0.0,0 STARLINK-3298,1 50165U 21125K   22064.58334491  .00018256  00000-0  11620-2 0  9993,2 50165  53.2203 356.2255 0001869  46.9375 261.5718 15.08844720  3608,6917.866,95.437,541.024,538.438,0.0
